[
    {
        "CCSDS_OMM_VERS": "3.0",
        "COMMENT": "GENERATED VIA SPACE-TRACK.ORG API",
        "CREATION_DATE": "2025-04-14T03:05:54",
        "ORIGINATOR": "18 SPCS",
        "OBJECT_NAME": "BEIDOU 11",
        "OBJECT_ID": "2012-008A",
        "CENTER_NAME": "EARTH",
        "REF_FRAME": "TEME",
        "TIME_SYSTEM": "UTC",
        "MEAN_ELEMENT_THEORY": "SGP4",
        "EPOCH": "2025-04-13T21:37:38.584992",
        "MEAN_MOTION": "1.00272606",
        "ECCENTRICITY": "0.00118750",
        "INCLINATION": "2.5039",
        "RA_OF_ASC_NODE": "71.2398",
        "ARG_OF_PERICENTER": "261.6274",
        "MEAN_ANOMALY": "252.5598",
        "EPHEMERIS_TYPE": "0",
        "CLASSIFICATION_TYPE": "U",
        "NORAD_CAT_ID": "38091",
        "ELEMENT_SET_NO": "999",
        "REV_AT_EPOCH": "4806",
        "BSTAR": "0.00000000000000",
        "MEAN_MOTION_DOT": "0.00000066",
        "MEAN_MOTION_DDOT": "0.0000000000000",
        "SEMIMAJOR_AXIS": "42164.502",
        "PERIOD": "1436.085",
        "APOAPSIS": "35836.437",
        "PERIAPSIS": "35736.296",
        "OBJECT_TYPE": "PAYLOAD",
        "RCS_SIZE": "LARGE",
        "COUNTRY_CODE": "PRC",
        "LAUNCH_DATE": "2012-02-24",
        "SITE": "XSC",
        "DECAY_DATE": null,
        "FILE": "4701263",
        "GP_ID": "285535775",
        "TLE_LINE0": "0 BEIDOU 11",
        "TLE_LINE1": "1 38091U 12008A   25103.90114103  .00000066  00000-0  00000-0 0  9994",
        "TLE_LINE2": "2 38091   2.5039  71.2398 0011875 261.6274 252.5598  1.00272606 48060"
    }
]